{
  "45419": {
    "noradId": "45419",
    "tle": [
      "1 45419C 20019BM  26120.88937500  .00123770  00000+0  14840-2 0  1200",
      "2 45419  53.0485 259.5708 0006039 264.1365 288.2813 15.60204281    13"
    ]
  },
  "45531": {
    "noradId": "45531",
    "tle": [
      "1 45531C 20025A   26120.92340278  .00058382  00000+0  49975-3 0  1201",
      "2 45531  53.0431 185.2090 0004319  15.4422 121.7778 15.68735158    19"
    ]
  },
  "45532": {
    "noradId": "45532",
    "tle": [
      "1 45532C 20025B   26120.88381944  .00059459  00000+0  61027-3 0  1200",
      "2 45532  53.0445 190.6980 0003534 351.0734  80.9060 15.64242089    18"
    ]
  },
  "45535": {
    "noradId": "45535",
    "tle": [
      "1 45535C 20025E   26120.91090278  .00048472  00000+0  13010-2 0  1205",
      "2 45535  53.0698 147.6403 0000870  54.5086 100.3203 15.37356218    14"
    ]
  },
  "45538": {
    "noradId": "45538",
    "tle": [
      "1 45538C 20025H   26120.89701389  .00000725  00000+0  21583-4 0  1202",
      "2 45538  53.1590 217.9547 0002506  41.8258 177.2214 15.34168593    16"
    ]
  },
  "45540": {
    "noradId": "45540",
    "tle": [
      "1 45540C 20025K   26120.87131944  .00007568  00000+0  22541-3 0  1203",
      "2 45540  53.1584 218.4477 0002871   7.1769 353.7435 15.34126631    10"
    ]
  },
  "45542": {
    "noradId": "45542",
    "tle": [
      "1 45542C 20025M   26120.87687500  .00037580  00000+0  52961-3 0  1205",
      "2 45542  53.0463 198.4358 0005959 347.7817 100.6010 15.55956772    17"
    ]
  },
  "45543": {
    "noradId": "45543",
    "tle": [
      "1 45543C 20025N   26120.82131944  .00008994  00000+0  26499-3 0  1201",
      "2 45543  53.1579 218.3199 0002743  10.9977 231.8986 15.34468885    15"
    ]
  },
  "45544": {
    "noradId": "45544",
    "tle": [
      "1 45544C 20025P   26120.91576389  .00732140  00000+0  77637-2 0  1204",
      "2 45544  53.0454 196.2437 0003318 328.1597 310.1860 15.63081064    11"
    ]
  },
  "45555": {
    "noradId": "45555",
    "tle": [
      "1 45555C 20025AA  26120.89770833  .00086486  00000+0  93619-3 0  1207",
      "2 45555  53.0414 172.8553 0004740 322.6288 297.4212 15.62870404    15"
    ]
  },
  "45564": {
    "noradId": "45564",
    "tle": [
      "1 45564C 20025AK  26120.86645833  .00032663  00000+0  51649-3 0  1200",
      "2 45564  53.0465 183.8904 0003476 326.1981  33.9283 15.52826915    15"
    ]
  },
  "45565": {
    "noradId": "45565",
    "tle": [
      "1 45565C 20025AL  26120.90395833  .00094824  00000+0  92752-3 0  1205",
      "2 45565  53.0439 143.2545 0007754   4.6210  67.1194 15.65401417    14"
    ]
  },
  "45567": {
    "noradId": "45567",
    "tle": [
      "1 45567C 20025AN  26120.85881944  .00036369  00000+0  50776-3 0  1204",
      "2 45567  53.0458 182.7923 0001747 312.8053 106.1793 15.56230622    17"
    ]
  },
  "45568": {
    "noradId": "45568",
    "tle": [
      "1 45568C 20025AP  26120.90256944  .00331910  00000+0  88038-3 0  1209",
      "2 45568  53.0325 133.9670 0003451  42.6742 173.4640 15.93734574    19"
    ]
  },
  "45569": {
    "noradId": "45569",
    "tle": [
      "1 45569C 20025AQ  26120.91437500  .00264580  00000+0  84467-3 0  1200",
      "2 45569  53.0335 135.3846 0003415  23.0265 196.5525 15.90210810    12"
    ]
  },
  "45570": {
    "noradId": "45570",
    "tle": [
      "1 45570C 20025AR  26120.82479167 -.00000872  00000+0 -25300-4 0  1203",
      "2 45570  53.1569 194.7980 0004738 353.0095 350.5107 15.34962635    13"
    ]
  },
  "45572": {
    "noradId": "45572",
    "tle": [
      "1 45572C 20025AT  26120.87479167  .00145400  00000+0  84311-3 0  1201",
      "2 45572  53.0450  86.4744 0003162 147.7668  72.8611 15.77775402    17"
    ]
  },
  "45573": {
    "noradId": "45573",
    "tle": [
      "1 45573C 20025AU  26120.86784722  .00056211  00000+0  74873-3 0  1200",
      "2 45573  53.0433 166.9575 0005364 355.7500 269.6357 15.57465506    19"
    ]
  },
  "45578": {
    "noradId": "45578",
    "tle": [
      "1 45578C 20025AZ  26120.87965278  .00051666  00000+0  70024-3 0  1206",
      "2 45578  53.0481 173.6923 0006859 336.1063 268.6101 15.56992700    12"
    ]
  },
  "45580": {
    "noradId": "45580",
    "tle": [
      "1 45580C 20025BB  26120.84215278 -.00007585  00000+0 -24112-3 0  1204",
      "2 45580  53.1584 195.4213 0002623  22.6230 202.5672 15.32069884    14"
    ]
  },
  "45581": {
    "noradId": "45581",
    "tle": [
      "1 45581C 20025BC  26120.84493056 -.00008507  00000+0 -25770-3 0  1203",
      "2 45581  53.1553 192.5596 0003522   7.1488 216.8172 15.33599767    17"
    ]
  },
  "45582": {
    "noradId": "45582",
    "tle": [
      "1 45582C 20025BD  26120.83381944  .00066069  00000+0  56606-3 0  1202",
      "2 45582  53.0478 166.5282 0007598 346.0950 267.1132 15.68681652    10"
    ]
  },
  "45586": {
    "noradId": "45586",
    "tle": [
      "1 45586C 20025BH  26120.90326389  .00107930  00000+0  10882-2 0  1204",
      "2 45586  53.0377 135.2677 0005024  20.8224 306.5180 15.64658914    18"
    ]
  },
  "45589": {
    "noradId": "45589",
    "tle": [
      "1 45589C 20025BL  26120.85881944  .00054255  00000+0  69200-3 0  1204",
      "2 45589  53.0445 171.2755 0005040 317.0805 154.2745 15.58621093    14"
    ]
  },
  "45590": {
    "noradId": "45590",
    "tle": [
      "1 45590C 20025BM  26120.89423611  .00022800  00000+0  35141-3 0  1201",
      "2 45590  53.0478 203.2415 0004523 317.9156 288.4556 15.53533382    12"
    ]
  },
  "45660": {
    "noradId": "45660",
    "tle": [
      "1 45660C 20035D   26120.84215278 -.00016905  00000+0 -57910-3 0  1202",
      "2 45660  53.1325 183.5393 0003473 340.9697 259.7296 15.29667691    12"
    ]
  },
  "45663": {
    "noradId": "45663",
    "tle": [
      "1 45663C 20035G   26120.87687500  .00060014  00000+0  12331-2 0  1204",
      "2 45663  53.0209 111.0366 0004440  69.3615  69.6212 15.45361926    14"
    ]
  },
  "45665": {
    "noradId": "45665",
    "tle": [
      "1 45665C 20035J   26120.82409722  .00071495  00000+0  75139-3 0  1200",
      "2 45665  53.0439 159.5444 0006908 339.9153 133.8851 15.63613190    15"
    ]
  },
  "45668": {
    "noradId": "45668",
    "tle": [
      "1 45668C 20035M   26120.86645833 -.00032672  00000+0 -18452-2 0  1202",
      "2 45668  53.0508 190.0004 0001710  14.9301  50.1188 15.12635438    15"
    ]
  },
  "45669": {
    "noradId": "45669",
    "tle": [
      "1 45669C 20035N   26120.88243056  .00119040  00000+0  18979-2 0  1203",
      "2 45669  53.0265 131.5663 0001559   0.1482  16.6112 15.52562468    15"
    ]
  },
  "45670": {
    "noradId": "45670",
    "tle": [
      "1 45670C 20035P   26120.85743056  .00165620  00000+0  17021-2 0  1209",
      "2 45670  53.0399 119.7946 0003408  60.8201   8.7864 15.64155535    16"
    ]
  },
  "45671": {
    "noradId": "45671",
    "tle": [
      "1 45671C 20035Q   26120.87965278  .00104610  00000+0  12219-2 0  1200",
      "2 45671  53.0449 160.0131 0004711 324.4636 317.1812 15.60902983    10"
    ]
  },
  "45673": {
    "noradId": "45673",
    "tle": [
      "1 45673C 20035S   26120.84145833  .00079196  00000+0  98674-3 0  1206",
      "2 45673  53.0440 154.3391 0007767  10.6474  98.4851 15.59203776    19"
    ]
  },
  "45674": {
    "noradId": "45674",
    "tle": [
      "1 45674C 20035T   26120.92479167  .00479400  00000+0  90326-3 0  1204",
      "2 45674  53.0363 117.2559 0003679  38.4818  40.7186 15.99851893    10"
    ]
  },
  "45675": {
    "noradId": "45675",
    "tle": [
      "1 45675C 20035U   26120.86993056  .00055085  00000+0  93716-3 0  1201",
      "2 45675  53.0475 166.3210 0006183 332.6135 303.7708 15.50760823    19"
    ]
  },
  "45676": {
    "noradId": "45676",
    "tle": [
      "1 45676C 20035V   26120.85326389 -.00001110  00000+0 -35427-4 0  1208",
      "2 45676  53.1580 182.5169 0002906  27.1324  54.6757 15.31949825    12"
    ]
  },
  "45677": {
    "noradId": "45677",
    "tle": [
      "1 45677C 20035W   26120.89076389  .00017539  00000+0  50951-3 0  1203",
      "2 45677  53.1529 181.8421 0002242  32.4200  86.5363 15.34910747    15"
    ]
  },
  "45679": {
    "noradId": "45679",
    "tle": [
      "1 45679C 20035Y   26120.83729167  .00050478  00000+0  62934-3 0  1201",
      "2 45679  53.0420 144.5844 0008599  16.0245  83.9189 15.59191774    14"
    ]
  },
  "45685": {
    "noradId": "45685",
    "tle": [
      "1 45685C 20035AE  26120.87479167  .00110460  00000+0  17405-2 0  1204",
      "2 45685  53.0413 133.3274 0008073  38.2969  92.2479 15.52853219    19"
    ]
  },
  "45686": {
    "noradId": "45686",
    "tle": [
      "1 45686C 20035AF  26120.87548611  .00010108  00000+0  24527-3 0  1208",
      "2 45686  53.1572 165.1276 0004445  27.7713 319.3446 15.40449188    11"
    ]
  },
  "45689": {
    "noradId": "45689",
    "tle": [
      "1 45689C 20035AJ  26120.87618056  .00018544  00000+0  59261-3 0  1207",
      "2 45689  53.1565 167.0447 0002710  41.1677 316.9145 15.31888945    16"
    ]
  },
  "45693": {
    "noradId": "45693",
    "tle": [
      "1 45693C 20035AN  26120.83729167 -.00030908  00000+0 -16284-2 0  1201",
      "2 45693  53.0483 177.4755 0005498  25.9308  73.4078 15.15093213    11"
    ]
  },
  "45695": {
    "noradId": "45695",
    "tle": [
      "1 45695C 20035AQ  26120.90048611  .00140450  00000+0  14427-2 0  1208",
      "2 45695  53.0443 128.4792 0006816  16.3213 205.7587 15.64160405    17"
    ]
  },
  "45696": {
    "noradId": "45696",
    "tle": [
      "1 45696C 20035AR  26120.83104167  .00001827  00000+0  58128-4 0  1202",
      "2 45696  53.1554 167.2273 0002977  33.3947  49.5285 15.32035054    19"
    ]
  },
  "45697": {
    "noradId": "45697",
    "tle": [
      "1 45697C 20035AS  26120.90881944  .00138860  00000+0  15977-2 0  1207",
      "2 45697  53.0444 128.3582 0007490  16.9117  27.5209 15.61252779    18"
    ]
  }
}